[
    {
        "Altitude(m)": 607886.7249912699,
        "Argument of Periapsis(deg)": 0.0,
        "Eccentricity": 0.0,
        "Inclination(deg)": 60.0,
        "Latitude(deg)": 40.99853450948854,
        "Longitude(deg)": 39.9728699639335,
        "Mean Anomaly(deg)": 49.09089999999999,
        "RAAN(deg)": 110.00000000000001,
        "Satellite Name": "Test1 487",
        "Satellite Number": 487,
        "Semi-Major Axis(m)": 6980739.136638005,
        "Time(s)": 0
    },
    {
        "Altitude(m)": 607987.6395181265,
        "Argument of Periapsis(deg)": 0.00010418945913296404,
        "Eccentricity": 0.0,
        "Inclination(deg)": 60.0,
        "Latitude(deg)": 41.46362569028762,
        "Longitude(deg)": 40.477096732117886,
        "Mean Anomaly(deg)": 49.71100614546181,
        "RAAN(deg)": 109.99957995086025,
        "Satellite Name": "Test1 487",
        "Satellite Number": 487,
        "Semi-Major Axis(m)": 6980739.136638005,
        "Time(s)": 10
    }
]